OBJECT C                
1 57582U 23117C   24176.17552221  .00005717  00000+0  29955-3 0  9998
2 57582  97.4863 248.1377 0009286 267.9466  92.0704 15.16147665 48245
